FENGYUN 1C DEB          
1 30205U 99025VN  17345.61637172  .00000016  00000-0  46812-4 0  9990
2 30205  98.8509 208.1029 0122297 193.3935 191.0363 13.86151143551253
